GLOBALSTAR M001 [-]     
1 25162U 98008A   24055.89221737 -.00000101  00000+0 -29277-4 0  9990
2 25162  52.0032 285.3037 0001545 358.7663  14.3956 12.38177437184465
GLOBALSTAR M004 [-]     
1 25163U 98008B   24055.77185578 -.00000054  00000+0  27658-3 0  9996
2 25163  51.9993  73.6336 0002678 309.0856 221.7019 12.63351198201214
GLOBALSTAR M002 [-]     
1 25164U 98008C   24055.51216841 -.00000048  00000+0  56015-3 0  9999
2 25164  52.0052   0.3915 0001545   0.2365 359.8456 11.61498318128444
GLOBALSTAR M003 [-]     
1 25165U 98008D   24055.96268850  .00000056  00000+0  15560-2 0  9993
2 25165  51.9828  53.0527 0008122  52.5519 323.5082 12.11980549175237
GLOBALSTAR M014 [-]     
1 25306U 98023A   24055.41248056 -.00000038  00000+0  74081-3 0  9998
2 25306  51.9840 293.9342 0000689 136.5515  34.3963 11.65465126135347
GLOBALSTAR M006 [-]     
1 25307U 98023B   24055.92340012 -.00000051  00000+0  50048-3 0  9992
2 25307  51.9969 327.2398 0003838 338.6773 144.7662 11.58156642161413
GLOBALSTAR M015 [-]     
1 25308U 98023C   24055.71811090 -.00000142  00000+0 -15590-2 0  9993
2 25308  51.9837  44.2894 0012423 304.0177 227.2168 11.48855065139080
GLOBALSTAR M008 [-]     
1 25309U 98023D   24055.50599466 -.00000072  00000+0  18765-3 0  9990
2 25309  51.9960 145.8346 0002202 230.3318 143.3193 12.36036609178655
